MEAN_MOTION;ECCENTRICITY;INCLINATION;RA_OF_ASC_NODE;ARG_OF_PERICENTER;MEAN_ANOMALY;BSTAR;MEAN_MOTION_DOT;MEAN_MOTION_DDOT;TYPE
14.3280134;0.0001606;44.9956;147.1249;311.2519;214.2643;7.7626E-5;7.3E-7;0;Orbcomm
14.32801743;0.0001576;44.9955;142.5393;313.8951;207.0542;7.3602E-5;6.2E-7;0;Orbcomm
14.32802241;0.0001553;44.9955;138.2975;316.2869;182.5134;7.9393E-5;7.8E-7;0;Orbcomm
14.32802315;0.0001548;44.9955;137.6272;316.7064;198.1797;7.9925E-5;7.9E-7;0;Orbcomm
14.32802732;0.0001516;44.9955;133.3636;319.2407;197.3225;8.4476E-5;9.2E-7;0;Orbcomm
14.32802732;0.0001516;44.9955;133.3636;319.2407;197.3225;8.4476E-5;9.2E-7;0;Orbcomm
14.32803099;0.000148;44.9955;129.155;321.7346;136.1644;8.7412E-5;1.0E-6;0;Orbcomm
14.32803401;0.0001438;44.9955;124.5675;324.6533;130.7707;8.5637E-5;9.5E-7;0;Orbcomm
14.32803404;0.0001439;44.9955;124.2215;324.9217;150.4504;8.4647E-5;9.2E-7;0;Orbcomm
14.32803667;0.0001388;44.9955;119.6011;328.2138;180.743;7.9081E-5;7.7E-7;0;Orbcomm
14.32803899;0.0001349;44.9956;115.0456;331.3332;140.0361;7.0269E-5;5.3E-7;0;Orbcomm
14.32804501;0.0001242;44.9956;105.5212;338.609;151.4017;5.331E-5;6.0E-8;0;Orbcomm
14.3280492;0.0001196;44.9957;100.9332;342.2245;145.7734;5.4769E-5;1.0E-7;0;Orbcomm
14.32805223;0.0001154;44.9957;97.7319;344.5321;58.541;5.8427E-5;2.0E-7;0;Orbcomm
14.3280544;0.0001146;44.9957;96.3452;346.2574;139.6364;6.4794E-5;3.8E-7;0;Orbcomm
14.32805969;0.0001079;44.9957;91.7283;350.0176;165.4057;7.6518E-5;7.0E-7;0;Orbcomm
14.3280616;0.0001061;44.9958;89.5009;352.081;89.1042;7.9221E-5;7.7E-7;0;Orbcomm
14.32806437;0.0001022;44.9958;86.8243;355.1606;145.0052;8.3646E-5;9.0E-7;0;Orbcomm
14.32806437;0.0001022;44.9958;86.8243;355.1606;145.0052;8.3646E-5;9.0E-7;0;Orbcomm
14.32806629;9.95E-5;44.9959;84.6267;357.1913;36.0743;8.5561E-5;9.5E-7;0;Orbcomm
14.32806794;9.61E-5;44.9959;82.2378;0.2348;136.2917;8.3585E-5;8.9E-7;0;Orbcomm
14.32806946;9.31E-5;44.996;80.039;2.4496;28.447;8.1403E-5;8.3E-7;0;Orbcomm
14.32807289;8.61E-5;44.9961;75.4491;8.0383;22.904;7.5846E-5;6.8E-7;0;Orbcomm
14.32807474;8.5E-5;44.9962;74.059;10.4954;107.0042;7.8026E-5;7.4E-7;0;Orbcomm
14.32807887;7.99E-5;44.9963;70.5102;15.1759;39.1942;7.9929E-5;7.9E-7;0;Orbcomm
14.32808243;7.85E-5;44.9964;68.1288;19.5631;129.919;8.542E-5;9.4E-7;0;Orbcomm
14.32808519;7.53E-5;44.9965;65.8809;22.9509;74.9127;8.6689E-5;9.8E-7;0;Orbcomm
14.32809058;7.08E-5;44.9966;61.3548;31.1652;356.9311;8.9248E-5;1.05E-6;0;Orbcomm
14.32809476;6.69E-5;44.9968;57.0436;39.6683;42.6073;8.6941E-5;9.9E-7;0;Orbcomm
14.32809501;6.59E-5;44.9968;56.4086;41.2771;18.2193;8.3925E-5;9.0E-7;0;Orbcomm
14.32809629;6.51E-5;44.9968;55.06;44.3378;56.2302;8.4207E-5;9.1E-7;0;Orbcomm
14.32809923;6.3E-5;44.9969;51.4677;52.6363;32.5894;8.2486E-5;8.6E-7;0;Orbcomm
14.32810377;6.12E-5;44.997;46.2308;65.3555;10.5934;8.459E-5;9.2E-7;0;Orbcomm
14.32810473;6.13E-5;44.997;45.1915;67.5579;69.7324;8.4964E-5;9.3E-7;0;Orbcomm
14.3281129;6.05E-5;44.9972;38.0566;86.6402;325.4113;9.0039E-5;1.07E-6;0;Orbcomm
14.3281165;6.15E-5;44.9972;35.6692;92.5974;61.1302;9.2932E-5;1.15E-6;0;Orbcomm
14.32812168;6.43E-5;44.9973;31.7352;102.5106;51.2039;9.4968E-5;1.21E-6;0;Orbcomm
14.32812215;6.46E-5;44.9973;31.3963;103.2334;62.6733;9.4981E-5;1.21E-6;0;Orbcomm
14.32812896;6.97E-5;44.9975;26.8027;113.015;57.2838;9.898E-5;1.32E-6;0;Orbcomm
14.32813956;7.7E-5;44.9976;19.7019;128.4264;279.4422;0.00010702;1.54E-6;0;Orbcomm
14.3281405;7.81E-5;44.9976;19.0086;129.9333;319.207;0.00010662;1.53E-6;0;Orbcomm
14.32814606;8.42E-5;44.9976;14.7312;137.8634;328.4964;0.00011026;1.63E-6;0;Orbcomm
14.3281517;9.41E-5;44.9976;9.4874;145.741;319.036;0.0001086;1.58E-6;0;Orbcomm
14.32815311;9.69E-5;44.9975;8.4938;146.2397;329.7061;0.00011042;1.63E-6;0;Orbcomm
14.32815722;0.0001029;44.9975;4.9429;151.2346;264.0121;0.00010898;1.59E-6;0;Orbcomm
14.3281593;0.0001056;44.9974;3.5579;152.5822;343.6054;0.00011089;1.65E-6;0;Orbcomm
14.32816291;0.0001116;44.9973;0.6326;156.5209;311.8849;0.00010944;1.61E-6;0;Orbcomm
14.32816829;0.0001218;44.9973;356.0463;161.644;302.9593;0.00010417;1.46E-6;0;Orbcomm
14.32817318;0.0001328;44.9972;350.834;166.5609;261.7984;9.347E-5;1.17E-6;0;Orbcomm
14.32817653;0.0001402;44.9972;346.8616;171.5413;298.7954;8.6965E-5;9.9E-7;0;Orbcomm
14.32817845;0.0001433;44.9971;345.1757;172.9747;348.7248;8.7199E-5;9.9E-7;0;Orbcomm
14.32818072;0.0001486;44.9971;341.6605;177.0699;244.6856;8.0249E-5;8.0E-7;0;Orbcomm
14.32818209;0.0001521;44.9971;340.2734;178.1911;326.7881;8.0578E-5;8.1E-7;0;Orbcomm
14.32818463;0.0001609;44.997;336.6844;181.8218;304.1937;7.7749E-5;7.3E-7;0;Orbcomm
14.32818792;0.000169;44.997;332.8304;185.6096;212.4622;7.8641E-5;7.6E-7;0;Orbcomm
14.32818886;0.0001711;44.997;331.759;186.5603;308.0106;7.986E-5;7.9E-7;0;Orbcomm
14.32819336;0.0001803;44.9968;327.1664;190.7596;306.9594;8.4631E-5;9.2E-7;0;Orbcomm
14.32819336;0.0001803;44.9968;327.1664;190.7596;306.9594;8.4631E-5;9.2E-7;0;Orbcomm
14.32819556;0.0001861;44.9967;324.2749;193.4017;239.4186;8.332E-5;8.9E-7;0;Orbcomm
14.32819625;0.0001878;44.9967;323.6119;193.7455;247.1148;8.2555E-5;8.7E-7;0;Orbcomm
14.32820006;0.0001978;44.9966;319.3745;197.1257;216.8032;8.0417E-5;8.1E-7;0;Orbcomm
14.32820043;0.0001988;44.9965;319.0244;197.3716;240.8889;7.995E-5;7.9E-7;0;Orbcomm
14.32821303;0.0002194;44.9963;308.8586;205.4868;235.4597;8.5086E-5;9.4E-7;0;Orbcomm
14.32821348;0.0002198;44.9963;308.5086;205.7651;259.5835;8.5514E-5;9.5E-7;0;Orbcomm
14.32821954;0.000229;44.9963;303.9209;209.4923;253.5098;9.0892E-5;1.1E-6;0;Orbcomm
14.32821996;0.0002291;44.9963;303.5709;209.8565;277.4434;9.1343E-5;1.11E-6;0;Orbcomm
14.32822448;0.0002367;44.9963;299.3332;213.3014;247.2665;9.3018E-5;1.15E-6;0;Orbcomm
14.32822679;0.0002414;44.9963;296.7429;215.4496;209.4197;9.2903E-5;1.15E-6;0;Orbcomm
14.32822905;0.0002459;44.9962;294.395;217.0286;266.017;9.2786E-5;1.15E-6;0;Orbcomm
14.32823121;0.0002523;44.9962;291.4614;219.2347;245.081;8.9818E-5;1.07E-6;0;Orbcomm
14.32823149;0.0002526;44.9962;291.1197;219.5195;260.0535;8.9416E-5;1.06E-6;0;Orbcomm
14.32823591;0.0002617;44.9961;285.1916;224.148;284.9519;8.3809E-5;9.0E-7;0;Orbcomm
14.32823846;0.0002657;44.9961;282.3428;226.4768;170.7683;8.1875E-5;8.5E-7;0;Orbcomm
14.3282426;0.0002736;44.9961;277.3642;230.2163;234.0347;7.4011E-5;6.3E-7;0;Orbcomm
14.32824355;0.0002748;44.9961;276.356;230.9424;260.4131;7.3588E-5;6.2E-7;0;Orbcomm
14.32824786;0.000283;44.996;272.5;233.7319;171.8403;7.2858E-5;6.0E-7;0;Orbcomm
14.32824974;0.0002844;44.996;271.1116;234.7895;255.3794;7.5957E-5;6.9E-7;0;Orbcomm
14.3282539;0.0002913;44.996;266.5236;238.187;249.8877;7.4421E-5;6.4E-7;0;Orbcomm
14.32825648;0.000296;44.9959;263.3224;240.5108;162.6024;7.3512E-5;6.2E-7;0;Orbcomm
14.32825796;0.0002983;44.9959;261.5921;241.8575;261.3035;7.5017E-5;6.6E-7;0;Orbcomm
14.32826127;0.0003042;44.9959;257.0033;245.3562;256.6945;7.5332E-5;6.7E-7;0;Orbcomm
14.32826522;0.0003111;44.996;250.8366;250.0638;183.4404;7.3258E-5;6.1E-7;0;Orbcomm
14.32826698;0.0003131;44.9959;248.5228;251.6902;202.4512;7.4037E-5;6.3E-7;0;Orbcomm
14.32827025;0.000317;44.9959;244.6257;254.6034;158.9246;7.3081E-5;6.1E-7;0;Orbcomm
14.32827235;0.000318;44.9959;242.8986;256.0102;254.0782;7.5101E-5;6.6E-7;0;Orbcomm
14.32827545;0.000321;44.9959;239.693;258.3668;171.683;7.3631E-5;6.2E-7;0;Orbcomm
14.32827779;0.0003218;44.9959;238.3078;259.4422;251.7353;7.8308E-5;7.5E-7;0;Orbcomm
14.32828133;0.0003242;44.9959;234.7637;262.0386;180.9388;7.6159E-5;6.9E-7;0;Orbcomm
14.32828153;0.000325;44.9958;233.7184;262.9039;247.9076;7.0015E-5;5.2E-7;0;Orbcomm
14.32828463;0.0003277;44.9958;230.5173;265.223;160.7121;6.7975E-5;4.7E-7;0;Orbcomm
14.32828606;0.0003283;44.9957;229.1237;266.3137;249.9342;6.7998E-5;4.7E-7;0;Orbcomm
14.32829328;0.0003311;44.9956;224.8886;269.4709;217.3591;8.7337E-5;1.0E-6;0;Orbcomm
14.32829569;0.0003331;44.9955;220.3006;272.9403;211.8539;7.7874E-5;7.4E-7;0;Orbcomm
14.32829842;0.0003345;44.9954;217.097;275.3619;127.2001;7.9268E-5;7.8E-7;0;Orbcomm
14.32829998;0.0003343;44.9953;215.3676;276.7428;224.8215;8.0626E-5;8.1E-7;0;Orbcomm
14.32830335;0.0003355;44.9953;211.4415;279.7007;213.0591;8.2733E-5;8.7E-7;0;Orbcomm
14.32830385;0.0003356;44.9952;210.7816;280.2255;217.1599;8.2511E-5;8.7E-7;0;Orbcomm
14.3283075;0.0003359;44.9952;206.1934;283.7207;211.779;8.0478E-5;8.1E-7;0;Orbcomm
14.32831062;0.0003356;44.9951;201.603;287.234;208.8274;7.3E-5;6.0E-7;0;Orbcomm
14.32831255;0.0003356;44.9951;199.0729;289.1844;105.1771;6.9207E-5;5.0E-7;0;Orbcomm
14.32831388;0.0003348;44.9951;197.3664;290.4818;177.6828;6.714E-5;4.4E-7;0;Orbcomm
14.32831418;0.0003346;44.9951;197.0113;290.7738;207.3928;6.6608E-5;4.3E-7;0;Orbcomm
14.32831707;0.0003337;44.995;193.1288;293.7829;147.632;6.0599E-5;2.6E-7;0;Orbcomm
14.32831786;0.0003335;44.995;192.0825;294.6554;215.707;5.9274E-5;2.3E-7;0;Orbcomm
14.3283206;0.0003322;44.995;188.1575;297.8554;202.4615;5.5435E-5;1.2E-7;0;Orbcomm
14.32832087;0.0003323;44.995;187.8412;298.1436;189.5247;5.5424E-5;1.2E-7;0;Orbcomm
14.32832501;0.0003303;44.9948;182.9092;302.0845;201.297;5.7182E-5;1.7E-7;0;Orbcomm
14.3283285;0.0003279;44.9947;178.3203;305.8733;196.3816;6.0393E-5;2.6E-7;0;Orbcomm
14.32833012;0.0003268;44.9946;175.7889;307.9488;93.8542;6.1542E-5;2.9E-7;0;Orbcomm
14.32833174;0.0003252;44.9946;173.7326;309.7107;190.1482;6.368E-5;3.5E-7;0;Orbcomm
14.32833453;0.0003217;44.9945;169.4527;313.396;205.8842;6.4797E-5;3.8E-7;0;Orbcomm
14.32833582;0.000321;44.9945;167.5689;315.0042;112.7528;6.4525E-5;3.7E-7;0;Orbcomm
14.32833736;0.0003179;44.9945;164.5575;317.6734;176.69;6.2193E-5;3.1E-7;0;Orbcomm
14.32833924;0.000313;44.9944;159.966;321.7621;174.2591;5.4275E-5;9.0E-8;0;Orbcomm
14.32834072;0.0003097;44.9945;157.0942;324.22;85.0807;4.9671E-5;-4.0E-8;0;Orbcomm
14.32834121;0.0003081;44.9945;156.0805;325.1788;117.2528;4.9084E-5;-5.0E-8;0;Orbcomm
14.32834398;0.0003034;44.9946;152.1799;328.6389;76.7478;4.8383E-5;-7.0E-8;0;Orbcomm
14.32834563;0.0003013;44.9946;150.4422;330.3435;183.193;5.0554E-5;-1.0E-8;0;Orbcomm
14.32834913;0.0002961;44.9948;146.1756;334.3883;184.0769;5.3859E-5;8.0E-8;0;Orbcomm
